{
  "type": "FeatureCollection",
  "features": [
    {
      "type": "Feature",
      "properties": {
        "norad_id": 43567,
        "name": "GSAT0220 (GALILEO 24)",
        "group": "gnss",
        "lat": -32.931950583129876,
        "lon": -168.49430762895446,
        "alt_km": 23218.08003077507,
        "timestamp": "2025-12-11T18:59:46.315650+00:00",
        "meta_object_name": "GSAT0220 (GALILEO 24)",
        "meta_object_id": "2018-060D",
        "meta_epoch": "2025-12-10T20:18:00.212256",
        "meta_mean_motion": 1.70475727,
        "meta_eccentricity": 0.0006125,
        "meta_inclination": 57.2305,
        "meta_ra_of_asc_node": 346.8727,
        "meta_arg_of_pericenter": 283.9956,
        "meta_mean_anomaly": 75.9532,
        "meta_ephemeris_type": 0,
        "meta_classification_type": "U",
        "meta_norad_cat_id": 43567,
        "meta_element_set_no": 999,
        "meta_rev_at_epoch": 4596,
        "meta_bstar": 0,
        "meta_mean_motion_dot": -8.7e-07,
        "meta_mean_motion_ddot": 0,
        "tle_line1": "1 43567U 18060D   25344.84583579 -.00000087  00000+0  00000+0 0  9991",
        "tle_line2": "2 43567  57.2305 346.8727 0006125 283.9956  75.9532  1.70475727 45967"
      },
      "geometry": {
        "type": "Point",
        "coordinates": [
          -168.49430762895446,
          -32.931950583129876
        ]
      }
    },
    {
      "type": "Feature",
      "properties": {
        "norad_id": 43581,
        "name": "BEIDOU-3 M5 (C23)",
        "group": "gnss",
        "lat": 41.52027862991251,
        "lon": -131.40392816806997,
        "alt_km": 21520.432342024134,
        "timestamp": "2025-12-11T18:59:46.315661+00:00",
        "meta_object_name": "BEIDOU-3 M5 (C23)",
        "meta_object_id": "2018-062A",
        "meta_epoch": "2025-12-07T09:56:06.099936",
        "meta_mean_motion": 1.86228656,
        "meta_eccentricity": 0.00021227,
        "meta_inclination": 54.0892,
        "meta_ra_of_asc_node": 188.8244,
        "meta_arg_of_pericenter": 353.0314,
        "meta_mean_anomaly": 7.0363,
        "meta_ephemeris_type": 0,
        "meta_classification_type": "U",
        "meta_norad_cat_id": 43581,
        "meta_element_set_no": 999,
        "meta_rev_at_epoch": 5006,
        "meta_bstar": 0,
        "meta_mean_motion_dot": 5.9e-07,
        "meta_mean_motion_ddot": 0,
        "tle_line1": "1 43581U 18062A   25341.41395949  .00000059  00000+0  00000+0 0  9999",
        "tle_line2": "2 43581  54.0892 188.8244 0002122 353.0314   7.0363  1.86228656 50066"
      },
      "geometry": {
        "type": "Point",
        "coordinates": [
          -131.40392816806997,
          41.52027862991251
        ]
      }
    },
    {
      "type": "Feature",
      "properties": {
        "norad_id": 43582,
        "name": "BEIDOU-3 M6 (C24)",
        "group": "gnss",
        "lat": 26.22850817899181,
        "lon": -12.249679674970848,
        "alt_km": 21528.662295506903,
        "timestamp": "2025-12-11T18:59:46.315672+00:00",
        "meta_object_name": "BEIDOU-3 M6 (C24)",
        "meta_object_id": "2018-062B",
        "meta_epoch": "2025-12-09T23:05:00.502368",
        "meta_mean_motion": 1.86229858,
        "meta_eccentricity": 0.0007797,
        "meta_inclination": 54.0887,
        "meta_ra_of_asc_node": 188.7266,
        "meta_arg_of_pericenter": 46.9981,
        "meta_mean_anomaly": 313.1258,
        "meta_ephemeris_type": 0,
        "meta_classification_type": "U",
        "meta_norad_cat_id": 43582,
        "meta_element_set_no": 999,
        "meta_rev_at_epoch": 5011,
        "meta_bstar": 0,
        "meta_mean_motion_dot": 5.2e-07,
        "meta_mean_motion_ddot": 0,
        "tle_line1": "1 43582U 18062B   25343.96181137  .00000052  00000+0  00000+0 0  9997",
        "tle_line2": "2 43582  54.0887 188.7266 0007797  46.9981 313.1258  1.86229858 50110"
      },
      "geometry": {
        "type": "Point",
        "coordinates": [
          -12.249679674970848,
          26.22850817899181
        ]
      }
    },
    {
      "type": "Feature",
      "properties": {
        "norad_id": 43602,
        "name": "BEIDOU-3 M12 (C26)",
        "group": "gnss",
        "lat": -6.947282776293733,
        "lon": 12.450125519820066,
        "alt_km": 21551.044929011114,
        "timestamp": "2025-12-11T18:59:46.315683+00:00",
        "meta_object_name": "BEIDOU-3 M12 (C26)",
        "meta_object_id": "2018-067A",
        "meta_epoch": "2025-12-09T21:35:26.225376",
        "meta_mean_motion": 1.86227534,
        "meta_eccentricity": 0.00090945,
        "meta_inclination": 54.183,
        "meta_ra_of_asc_node": 187.4598,
        "meta_arg_of_pericenter": 40.6301,
        "meta_mean_anomaly": 319.4946,
        "meta_ephemeris_type": 0,
        "meta_classification_type": "U",
        "meta_norad_cat_id": 43602,
        "meta_element_set_no": 999,
        "meta_rev_at_epoch": 4959,
        "meta_bstar": 0,
        "meta_mean_motion_dot": 5.3e-07,
        "meta_mean_motion_ddot": 0,
        "tle_line1": "1 43602U 18067A   25343.89960909  .00000053  00000+0  00000+0 0  9990",
        "tle_line2": "2 43602  54.1830 187.4598 0009094  40.6301 319.4946  1.86227534 49597"
      },
      "geometry": {
        "type": "Point",
        "coordinates": [
          12.450125519820066,
          -6.947282776293733
        ]
      }
    },
    {
      "type": "Feature",
      "properties": {
        "norad_id": 43603,
        "name": "BEIDOU-3 M11 (C25)",
        "group": "gnss",
        "lat": 53.324952315486314,
        "lon": -68.55535339175508,
        "alt_km": 21514.74474050298,
        "timestamp": "2025-12-11T18:59:46.315694+00:00",
        "meta_object_name": "BEIDOU-3 M11 (C25)",
        "meta_object_id": "2018-067B",
        "meta_epoch": "2025-12-07T08:23:01.607424",
        "meta_mean_motion": 1.86227152,
        "meta_eccentricity": 0.0005581,
        "meta_inclination": 54.1802,
        "meta_ra_of_asc_node": 187.5102,
        "meta_arg_of_pericenter": 36.6822,
        "meta_mean_anomaly": 323.425,
        "meta_ephemeris_type": 0,
        "meta_classification_type": "U",
        "meta_norad_cat_id": 43603,
        "meta_element_set_no": 999,
        "meta_rev_at_epoch": 4957,
        "meta_bstar": 0,
        "meta_mean_motion_dot": 6e-07,
        "meta_mean_motion_ddot": 0,
        "tle_line1": "1 43603U 18067B   25341.34932416  .00000060  00000+0  00000+0 0  9999",
        "tle_line2": "2 43603  54.1802 187.5102 0005581  36.6822 323.4250  1.86227152 49576"
      },
      "geometry": {
        "type": "Point",
        "coordinates": [
          -68.55535339175508,
          53.324952315486314
        ]
      }
    },
    {
      "type": "Feature",
      "properties": {
        "norad_id": 43622,
        "name": "BEIDOU-3 M13 (C32)",
        "group": "gnss",
        "lat": 41.50199420460232,
        "lon": -147.0245183982868,
        "alt_km": 21538.70969693372,
        "timestamp": "2025-12-11T18:59:46.315705+00:00",
        "meta_object_name": "BEIDOU-3 M13 (C32)",
        "meta_object_id": "2018-072A",
        "meta_epoch": "2025-12-09T23:46:31.895616",
        "meta_mean_motion": 1.8623066,
        "meta_eccentricity": 0.00056577,
        "meta_inclination": 56.4568,
        "meta_ra_of_asc_node": 68.9118,
        "meta_arg_of_pericenter": 299.2639,
        "meta_mean_anomaly": 60.7025,
        "meta_ephemeris_type": 0,
        "meta_classification_type": "U",
        "meta_norad_cat_id": 43622,
        "meta_element_set_no": 999,
        "meta_rev_at_epoch": 4913,
        "meta_bstar": 0,
        "meta_mean_motion_dot": -5.2e-07,
        "meta_mean_motion_ddot": 0,
        "tle_line1": "1 43622U 18072A   25343.99064694 -.00000052  00000+0  00000+0 0  9995",
        "tle_line2": "2 43622  56.4568  68.9118 0005657 299.2639  60.7025  1.86230660 49138"
      },
      "geometry": {
        "type": "Point",
        "coordinates": [
          -147.0245183982868,
          41.50199420460232
        ]
      }
    },
    {
      "type": "Feature",
      "properties": {
        "norad_id": 43623,
        "name": "BEIDOU-3 M14 (C33)",
        "group": "gnss",
        "lat": -30.558198479995756,
        "lon": -88.12333136259818,
        "alt_km": 21536.25098841931,
        "timestamp": "2025-12-11T18:59:46.315716+00:00",
        "meta_object_name": "BEIDOU-3 M14 (C33)",
        "meta_object_id": "2018-072B",
        "meta_epoch": "2025-12-09T20:32:48.183072",
        "meta_mean_motion": 1.86230666,
        "meta_eccentricity": 0.00032297,
        "meta_inclination": 56.4585,
        "meta_ra_of_asc_node": 68.9098,
        "meta_arg_of_pericenter": 335.6302,
        "meta_mean_anomaly": 24.3775,
        "meta_ephemeris_type": 0,
        "meta_classification_type": "U",
        "meta_norad_cat_id": 43623,
        "meta_element_set_no": 999,
        "meta_rev_at_epoch": 4912,
        "meta_bstar": 0,
        "meta_mean_motion_dot": -5.1e-07,
        "meta_mean_motion_ddot": 0,
        "tle_line1": "1 43623U 18072B   25343.85611323 -.00000051  00000+0  00000+0 0  9997",
        "tle_line2": "2 43623  56.4585  68.9098 0003229 335.6302  24.3775  1.86230666 49123"
      },
      "geometry": {
        "type": "Point",
        "coordinates": [
          -88.12333136259818,
          -30.558198479995756
        ]
      }
    }
  ]
}